COMMENT,ORIGINATOR,NORAD_CAT_ID,OBJECT_NAME,OBJECT_TYPE,CLASSIFICATION_TYPE,INTLDES,EPOCH,EPOCH_MICROSECONDS,MEAN_MOTION,ECCENTRICITY,INCLINATION,RA_OF_ASC_NODE,ARG_OF_PERICENTER,MEAN_ANOMALY,EPHEMERIS_TYPE,ELEMENT_SET_NO,REV_AT_EPOCH,BSTAR,MEAN_MOTION_DOT,MEAN_MOTION_DDOT,FILE,TLE_LINE0,TLE_LINE1,TLE_LINE2,OBJECT_ID,OBJECT_NUMBER,SEMIMAJOR_AXIS,PERIOD,APOGEE,PERIGEE,DECAYED,date
GENERATED VIA SPACETRACK.ORG API,18 SPCS,52183,SPACEBEE-133,PAYLOAD,U,22033AC,2023/2/22 18:57,633600,15.33679632,0.0007641,97.358,137.0295,214.5813,145.4934,0,999,4986,0.0013329,0.00043561,0,3825529,0 SPACEBEE-133,1 52183U 22033AC  23053.78979900  .00043561  00000-0  13329-2 0  9990,2 52183  97.3580 137.0295 0007641 214.5813 145.4934 15.33679632 49864,2022-033AC,52183,6842.982,93.892,470.076,459.618,1,2023/4/26
GENERATED VIA SPACETRACK.ORG API,18 SPCS,52183,SPACEBEE-133,PAYLOAD,U,22033AC,2023/2/23 4:21,289088,15.33715271,0.0007672,97.3578,137.4192,213.1099,146.9664,0,999,4992,0.0014465,0.00047357,0,3828819,0 SPACEBEE-133,1 52183U 22033AC  23054.18126492  .00047357  00000-0  14465-2 0  9994,2 52183  97.3578 137.4192 0007672 213.1099 146.9664 15.33715271 49929,2022-033AC,52183,6842.876,93.89,469.991,459.491,1,2023/4/27
GENERATED VIA SPACETRACK.ORG API,18 SPCS,52183,SPACEBEE-133,PAYLOAD,U,22033AC,2023/2/23 18:26,706752,15.3376925,0.0007685,97.3576,138.004,210.7256,149.3538,0,999,5001,0.0014155,0.00046414,0,3830532,0 SPACEBEE-133,1 52183U 22033AC  23054.76844568  .00046414  00000-0  14155-2 0  9998,2 52183  97.3576 138.0040 0007685 210.7256 149.3538 15.33769250 50013,2022-033AC,52183,6842.716,93.886,469.839,459.322,1,2023/4/28
GENERATED VIA SPACETRACK.ORG API,18 SPCS,52183,SPACEBEE-133,PAYLOAD,U,22033AC,2023/2/23 23:08,120384,15.33786593,0.0007703,97.3574,138.199,209.7819,150.2986,0,999,5003,0.001424,0.0004672,0,3830260,0 SPACEBEE-133,1 52183U 22033AC  23054.96416806  .00046720  00000-0  14240-2 0  9995,2 52183  97.3574 138.1990 0007703 209.7819 150.2986 15.33786593 50039,2022-033AC,52183,6842.664,93.885,469.8,459.258,1,2023/4/29
GENERATED VIA SPACETRACK.ORG API,18 SPCS,52183,SPACEBEE-133,PAYLOAD,U,22033AC,2023/2/24 10:06,808416,15.33834516,0.000771,97.3577,138.6544,208.1876,151.8951,0,999,5011,0.0014608,0.0004801,0,3832867,0 SPACEBEE-133,1 52183U 22033AC  23055.42084269  .00048010  00000-0  14608-2 0  9993,2 52183  97.3577 138.6544 0007710 208.1876 151.8951 15.33834516 50113,2022-033AC,52183,6842.521,93.882,469.662,459.111,1,2023/4/30
GENERATED VIA SPACETRACK.ORG API,18 SPCS,52183,SPACEBEE-133,PAYLOAD,U,22033AC,2023/2/24 21:03,549504,15.33866393,0.0007728,97.3577,139.1096,206.5148,153.5701,0,999,5018,0.0011159,0.00036639,0,3835059,0 SPACEBEE-133,1 52183U 22033AC  23055.87750636  .00036639  00000-0  11159-2 0  9992,2 52183  97.3577 139.1096 0007728 206.5148 153.5701 15.33866393 50181,2022-033AC,52183,6842.427,93.88,469.58,459.004,1,
GENERATED VIA SPACETRACK.ORG API,18 SPCS,52183,SPACEBEE-133,PAYLOAD,U,22033AC,2023/2/25 4:53,686400,15.33893135,0.0007735,97.3575,139.4346,205.4662,154.6201,0,999,5022,0.0011646,0.00038282,0,3836233,0 SPACEBEE-133,1 52183U 22033AC  23056.20368850  .00038282  00000-0  11646-2 0  9990,2 52183  97.3575 139.4346 0007735 205.4662 154.6201 15.33893135 50223,2022-033AC,52183,6842.347,93.879,469.505,458.92,1,
GENERATED VIA SPACETRACK.ORG API,18 SPCS,52183,SPACEBEE-133,PAYLOAD,U,22033AC,2023/2/25 11:09,87296,15.33911281,0.0007758,97.3574,139.6945,204.5061,155.5814,0,999,5027,0.0011381,0.00037427,0,3837605,0 SPACEBEE-133,1 52183U 22033AC  23056.46463064  .00037427  00000-0  11381-2 0  9997,2 52183  97.3574 139.6945 0007758 204.5061 155.5814 15.33911281 50275,2022-033AC,52183,6842.293,93.878,469.466,458.85,1,
GENERATED VIA SPACETRACK.ORG API,18 SPCS,52183,SPACEBEE-133,PAYLOAD,U,22033AC,2023/2/25 18:58,403392,15.3394003,0.0007759,97.3572,140.0194,203.4969,156.592,0,999,5032,0.0012702,0.00041842,0,3839003,0 SPACEBEE-133,1 52183U 22033AC  23056.79080328  .00041842  00000-0  12702-2 0  9995,2 52183  97.3572 140.0194 0007759 203.4969 156.5920 15.33940030 50320,2022-033AC,52183,6842.208,93.876,469.382,458.764,1,
GENERATED VIA SPACETRACK.ORG API,18 SPCS,52183,SPACEBEE-133,PAYLOAD,U,22033AC,2023/2/26 4:22,238112,15.33978413,0.0007758,97.3571,140.4094,202.3267,157.764,0,999,5037,0.0014646,0.00048357,0,3841362,0 SPACEBEE-133,1 52183U 22033AC  23057.18220183  .00048357  00000-0  14646-2 0  9991,2 52183  97.3571 140.4094 0007758 202.3267 157.7640 15.33978413 50373,2022-033AC,52183,6842.094,93.874,469.267,458.65,1,
GENERATED VIA SPACETRACK.ORG API,18 SPCS,52183,SPACEBEE-133,PAYLOAD,U,22033AC,2023/2/26 4:22,238112,15.33978413,0.0007758,97.3571,140.4094,202.3267,157.764,0,999,5038,0.0014646,0.00048357,0,3841853,0 SPACEBEE-133,1 52183U 22033AC  23057.18220183  .00048357  00000-0  14646-2 0  9991,2 52183  97.3571 140.4094 0007758 202.3267 157.7640 15.33978413 50384,2022-033AC,52183,6842.094,93.874,469.267,458.65,1,
GENERATED VIA SPACETRACK.ORG API,18 SPCS,52183,SPACEBEE-133,PAYLOAD,U,22033AC,2023/2/26 16:53,20224,15.34028215,0.0007728,97.3571,140.9296,200.4951,159.5983,0,999,5046,0.00139,0.00045948,0,3843368,0 SPACEBEE-133,1 52183U 22033AC  23057.70405116  .00045948  00000-0  13900-2 0  9995,2 52183  97.3571 140.9296 0007728 200.4951 159.5983 15.34028215 50465,2022-033AC,52183,6841.945,93.871,469.098,458.523,1,
GENERATED VIA SPACETRACK.ORG API,18 SPCS,52183,SPACEBEE-133,PAYLOAD,U,22033AC,2023/2/27 5:25,89024,15.34098434,0.00078,97.3568,141.449,198.5044,161.5916,0,999,5053,0.0019612,0.0006517,0,3845620,0 SPACEBEE-133,1 52183U 22033AC  23058.22588066  .00065170  00000-0  19612-2 0  9994,2 52183  97.3568 141.4490 0007800 198.5044 161.5916 15.34098434 50531,2022-033AC,52183,6841.737,93.866,468.938,458.265,1,
GENERATED VIA SPACETRACK.ORG API,18 SPCS,52183,SPACEBEE-133,PAYLOAD,U,22033AC,2023/2/27 5:25,89024,15.34098434,0.00078,97.3568,141.449,198.5044,161.5916,0,999,5054,0.0019612,0.0006517,0,3846396,0 SPACEBEE-133,1 52183U 22033AC  23058.22588066  .00065170  00000-0  19612-2 0  9994,2 52183  97.3568 141.4490 0007800 198.5044 161.5916 15.34098434 50542,2022-033AC,52183,6841.737,93.866,468.938,458.265,1,
GENERATED VIA SPACETRACK.ORG API,18 SPCS,52183,SPACEBEE-133,PAYLOAD,U,22033AC,2023/2/28 4:54,311808,15.34255021,0.0007877,97.3569,142.4244,194.9627,165.1384,0,999,5068,0.0021262,0.00071066,0,3847250,0 SPACEBEE-133,1 52183U 22033AC  23059.20423972  .00071066  00000-0  21262-2 0  9992,2 52183  97.3569 142.4244 0007877 194.9627 165.1384 15.34255021 50683,2022-033AC,52183,6841.271,93.857,468.525,457.747,1,
GENERATED VIA SPACETRACK.ORG API,18 SPCS,52183,SPACEBEE-133,PAYLOAD,U,22033AC,2023/2/28 11:09,349856,15.34283571,0.0007798,97.357,142.685,194.3914,165.7108,0,999,5073,0.0019398,0.00064833,0,3847542,0 SPACEBEE-133,1 52183U 22033AC  23059.46511979  .00064833  00000-0  19398-2 0  9996,2 52183  97.3570 142.6850 0007798 194.3914 165.7108 15.34283571 50732,2022-033AC,52183,6841.186,93.855,468.386,457.717,1,
GENERATED VIA SPACETRACK.ORG API,18 SPCS,52183,SPACEBEE-133,PAYLOAD,U,22033AC,2023/2/28 18:59,810112,15.34316105,0.0007809,97.3568,143.0099,193.5545,166.549,0,999,5078,0.0015659,0.0005229,0,3847656,0 SPACEBEE-133,1 52183U 22033AC  23059.79121308  .00052290  00000-0  15659-2 0  9995,2 52183  97.3568 143.0099 0007809 193.5545 166.5490 15.34316105 50781,2022-033AC,52183,6841.09,93.853,468.297,457.612,1,
GENERATED VIA SPACETRACK.ORG API,18 SPCS,52183,SPACEBEE-133,PAYLOAD,U,22033AC,2023/2/28 18:59,810112,15.34316105,0.0007809,97.3568,143.0099,193.5545,166.549,0,999,5077,0.0015659,0.0005229,0,3847860,0 SPACEBEE-133,1 52183U 22033AC  23059.79121308  .00052290  00000-0  15659-2 0  9995,2 52183  97.3568 143.0099 0007809 193.5545 166.5490 15.34316105 50770,2022-033AC,52183,6841.09,93.853,468.297,457.612,1,
GENERATED VIA SPACETRACK.ORG API,18 SPCS,52183,SPACEBEE-133,PAYLOAD,U,22033AC,2023/3/1 4:22,248480,15.34363092,0.0007856,97.3569,143.3997,192.1029,168.0027,0,999,5083,0.0017069,0.00057126,0,3848752,0 SPACEBEE-133,1 52183U 22033AC  23060.18251445  .00057126  00000-0  17069-2 0  9996,2 52183  97.3569 143.3997 0007856 192.1029 168.0027 15.34363092 50832,2022-033AC,52183,6840.95,93.85,468.189,457.441,1,
GENERATED VIA SPACETRACK.ORG API,18 SPCS,52183,SPACEBEE-133,PAYLOAD,U,22033AC,2023/3/1 4:22,248480,15.34363092,0.0007856,97.3569,143.3997,192.1029,168.0027,0,999,5084,0.0017069,0.00057126,0,3848834,0 SPACEBEE-133,1 52183U 22033AC  23060.18251445  .00057126  00000-0  17069-2 0  9996,2 52183  97.3569 143.3997 0007856 192.1029 168.0027 15.34363092 50843,2022-033AC,52183,6840.95,93.85,468.189,457.441,1,
GENERATED VIA SPACETRACK.ORG API,18 SPCS,52183,SPACEBEE-133,PAYLOAD,U,22033AC,2023/3/2 3:51,551872,15.34459867,0.0007903,97.357,144.3752,188.4579,171.6532,0,999,5098,0.0013708,0.00045937,0,3849113,0 SPACEBEE-133,1 52183U 22033AC  23061.16072398  .00045937  00000-0  13708-2 0  9996,2 52183  97.3570 144.3752 0007903 188.4579 171.6532 15.34459867 50988,2022-033AC,52183,6840.662,93.844,467.933,457.121,1,
GENERATED VIA SPACETRACK.ORG API,18 SPCS,52183,SPACEBEE-133,PAYLOAD,U,22033AC,2023/3/2 5:25,829792,15.34467771,0.000789,97.3571,144.4402,188.0812,172.0305,0,999,5100,0.0013534,0.0004536,0,3849487,0 SPACEBEE-133,1 52183U 22033AC  23061.22593553  .00045360  00000-0  13534-2 0  9991,2 52183  97.3571 144.4402 0007890 188.0812 172.0305 15.34467771 51003,2022-033AC,52183,6840.639,93.844,467.901,457.107,1,
GENERATED VIA SPACETRACK.ORG API,18 SPCS,52183,SPACEBEE-133,PAYLOAD,U,22033AC,2023/3/3 4:53,86912,15.34583617,0.0007897,97.3564,145.4149,185.0939,175.0225,0,999,5114,0.0021125,0.00071348,0,3849969,0 SPACEBEE-133,1 52183U 22033AC  23062.20407508  .00071348  00000-0  21125-2 0  9994,2 52183  97.3564 145.4149 0007897 185.0939 175.0225 15.34583617 51145,2022-033AC,52183,6840.295,93.837,467.561,456.758,1,
